ADRAS-J                 
1 58992U 24034A   24199.51387239  .00007029  00000+0  64782-3 0  9996
2 58992  98.2127 173.9184 0042432 310.4586  49.2935 14.94345127 22397
